[{"OBJECT_NAME":"EYESAT A (AO-27)","OBJECT_ID":"1993-061C","EPOCH":"2026-03-09T16:58:07.157856","MEAN_MOTION":14.30913089,"ECCENTRICITY":0.00089503,"INCLINATION":98.6982,"RA_OF_ASC_NODE":136.1171,"ARG_OF_PERICENTER":38.8989,"MEAN_ANOMALY":321.2837,"EPHEMERIS_TYPE":0,"CLASSIFICATION_TYPE":"U","NORAD_CAT_ID":22825,"ELEMENT_SET_NO":999,"REV_AT_EPOCH":69277,"BSTAR":7.1797441e-5,"MEAN_MOTION_DOT":1.44e-6,"MEAN_MOTION_DDOT":0},{"OBJECT_NAME":"CZ-2D R\/B","OBJECT_ID":"2016-068B","EPOCH":"2026-03-09T22:28:20.265024","MEAN_MOTION":14.37112466,"ECCENTRICITY":0.0034051,"INCLINATION":98.6321,"RA_OF_ASC_NODE":73.6855,"ARG_OF_PERICENTER":113.4612,"MEAN_ANOMALY":247.016,"EPHEMERIS_TYPE":0,"CLASSIFICATION_TYPE":"U","NORAD_CAT_ID":41858,"ELEMENT_SET_NO":999,"REV_AT_EPOCH":48871,"BSTAR":9.5150002e-5,"MEAN_MOTION_DOT":2.4e-6,"MEAN_MOTION_DDOT":0}]
